ONEWEB-0520             
1 54138U 22138AB  25283.92003139  .00000053  00000+0  10041-3 0  9990
2 54138  87.9280 354.5363 0001774 109.2424 250.8901 13.19723012143942
ONEWEB-0521             
1 54139U 22138AC  25283.95321882 -.00000087  00000+0 -24902-3 0  9992
2 54139  87.9277 354.5152 0001862  93.5628 266.5717 13.19725887143899
ONEWEB-0522             
1 54140U 22138AD  25283.62942255  .00000060  00000+0  11652-3 0  9998
2 54140  87.9277 354.5806 0001761 104.6631 255.4697 13.19725325143894
ONEWEB-0523             
1 54141U 22138AE  25283.86639189 -.00000143  00000+0 -38352-3 0  9994
2 54141  87.9224 324.1638 0002607  82.7093 277.4337 13.20773441146398
ONEWEB-0524             
1 54142U 22138AF  25283.85536138  .00000044  00000+0  75306-4 0  9993
2 54142  87.9222 324.1673 0002834 101.3090 258.8362 13.20770977146395
ONEWEB-0525             
1 54143U 22138AG  25283.64836537  .00000003  00000+0 -25869-4 0  9992
2 54143  87.9281 354.5990 0001762 109.3869 250.7454 13.19726231143911
ONEWEB-0526             
1 54144U 22138AH  25283.90897574 -.00000158  00000+0 -42702-3 0  9996
2 54144  87.9278 354.5338 0001829 103.1509 256.9828 13.19725071143926
ONEWEB-0529             
1 54145U 22138AJ  25283.60887609  .00000084  00000+0  17686-3 0  9991
2 54145  87.9264 354.6302 0001786 107.6940 252.4388 13.19727085143901
